{
    "links": {
        "self": "http://www.neowsapp.com/rest/v1/neo/3728906?api_key=iIulBulltgU6a56xZRHN4H3l9WmuAYTsLGpBGhQ2"
    },
    "id": "3728906",
    "neo_reference_id": "3728906",
    "name": "(2015 TJ)",
    "designation": "2015 TJ",
    "nasa_jpl_url": "http://ssd.jpl.nasa.gov/sbdb.cgi?sstr=3728906",
    "absolute_magnitude_h": 22.9,
    "estimated_diameter": {
        "kilometers": {
            "estimated_diameter_min": 0.0699125232,
            "estimated_diameter_max": 0.1563291544
        },
        "meters": {
            "estimated_diameter_min": 69.9125232246,
            "estimated_diameter_max": 156.3291544087
        },
        "miles": {
            "estimated_diameter_min": 0.0434416145,
            "estimated_diameter_max": 0.097138403
        },
        "feet": {
            "estimated_diameter_min": 229.3718026961,
            "estimated_diameter_max": 512.8909429502
        }
    },
    "is_potentially_hazardous_asteroid": false,
    "close_approach_data": [
        {
            "close_approach_date": "2015-09-25",
            "close_approach_date_full": "2015-Sep-25 13:10",
            "epoch_date_close_approach": 1443186600000,
            "relative_velocity": {
                "kilometers_per_second": "23.15139774",
                "kilometers_per_hour": "83345.031864121",
                "miles_per_hour": "51787.3616046812"
            },
            "miss_distance": {
                "astronomical": "0.0259577983",
                "lunar": "10.0975835387",
                "kilometers": "3883231.335569621",
                "miles": "2412928.0629619298"
            },
            "orbiting_body": "Earth"
        },
        {
            "close_approach_date": "2101-09-18",
            "close_approach_date_full": "2101-Sep-18 05:41",
            "epoch_date_close_approach": 4156465260000,
            "relative_velocity": {
                "kilometers_per_second": "20.4353426671",
                "kilometers_per_hour": "73567.2336017368",
                "miles_per_hour": "45711.8180121458"
            },
            "miss_distance": {
                "astronomical": "0.1385589584",
                "lunar": "53.8994348176",
                "kilometers": "20728125.046058608",
                "miles": "12879859.6565924704"
            },
            "orbiting_body": "Earth"
        }
    ],
    "orbital_data": {
        "orbit_id": "5",
        "orbit_determination_date": "2017-04-06 08:31:39",
        "first_observation_date": "2015-10-02",
        "last_observation_date": "2015-10-17",
        "data_arc_in_days": 15,
        "observations_used": 41,
        "orbit_uncertainty": "8",
        "minimum_orbit_intersection": ".00513713",
        "jupiter_tisserand_invariant": "3.137",
        "epoch_osculation": "2457298.5",
        "eccentricity": ".7182109962494342",
        "semi_major_axis": "2.278232738112827",
        "inclination": "22.20006033604249",
        "ascending_node_longitude": "183.9363226248908",
        "orbital_period": "1256.017121070368",
        "perihelion_distance": ".6419809335847373",
        "perihelion_argument": "97.13278322110398",
        "aphelion_distance": "3.914484542640917",
        "perihelion_time": "2457245.385613051141",
        "mean_anomaly": "15.22366135048726",
        "mean_motion": ".2866202967784474",
        "equinox": "J2000",
        "orbit_class": {
            "orbit_class_type": "APO",
            "orbit_class_description": "Near-Earth asteroid orbits which cross the Earth’s orbit similar to that of 1862 Apollo",
            "orbit_class_range": "a (semi-major axis) > 1.0 AU; q (perihelion) < 1.017 AU"
        }
    },
    "is_sentry_object": false
}